{
  "type": "FeatureCollection",
  "features": [
    {
      "type": "Feature",
      "properties": {
        "norad_id": 40889,
        "name": "GSAT0205 (GALILEO 9)",
        "group": "galileo",
        "lat": 24.1279449794512,
        "lon": -115.14487291682347,
        "alt_km": 23201.844249648115,
        "timestamp": "2025-12-19T18:58:41.850943+00:00",
        "meta_object_name": "GSAT0205 (GALILEO 9)",
        "meta_object_id": "2015-045A",
        "meta_epoch": "2025-12-17T23:34:28.865856",
        "meta_mean_motion": 1.70473246,
        "meta_eccentricity": 0.00059886,
        "meta_inclination": 55.0015,
        "meta_ra_of_asc_node": 226.6133,
        "meta_arg_of_pericenter": 39.6119,
        "meta_mean_anomaly": 320.5359,
        "meta_ephemeris_type": 0,
        "meta_classification_type": "U",
        "meta_norad_cat_id": 40889,
        "meta_element_set_no": 999,
        "meta_rev_at_epoch": 6392,
        "meta_bstar": 0,
        "meta_mean_motion_dot": 5.9e-07,
        "meta_mean_motion_ddot": 0,
        "tle_line1": "1 40889U 15045A   25351.98227854  .00000059  00000+0  00000+0 0  9997",
        "tle_line2": "2 40889  55.0015 226.6133 0005988  39.6119 320.5359  1.70473246 63920"
      },
      "geometry": {
        "type": "Point",
        "coordinates": [
          -115.14487291682347,
          24.1279449794512
        ]
      }
    },
    {
      "type": "Feature",
      "properties": {
        "norad_id": 40890,
        "name": "GSAT0206 (GALILEO 10)",
        "group": "galileo",
        "lat": -52.12994880502951,
        "lon": 110.7881908121448,
        "alt_km": 23238.642944751497,
        "timestamp": "2025-12-19T18:58:41.850954+00:00",
        "meta_object_name": "GSAT0206 (GALILEO 10)",
        "meta_object_id": "2015-045B",
        "meta_epoch": "2025-12-18T18:56:55.411008",
        "meta_mean_motion": 1.70473154,
        "meta_eccentricity": 0.00042207,
        "meta_inclination": 55.0004,
        "meta_ra_of_asc_node": 226.586,
        "meta_arg_of_pericenter": 42.9195,
        "meta_mean_anomaly": 317.2206,
        "meta_ephemeris_type": 0,
        "meta_classification_type": "U",
        "meta_norad_cat_id": 40890,
        "meta_element_set_no": 999,
        "meta_rev_at_epoch": 6396,
        "meta_bstar": 0,
        "meta_mean_motion_dot": 6.4e-07,
        "meta_mean_motion_ddot": 0,
        "tle_line1": "1 40890U 15045B   25352.78953022  .00000064  00000+0  00000+0 0  9997",
        "tle_line2": "2 40890  55.0004 226.5860 0004220  42.9195 317.2206  1.70473154 63961"
      },
      "geometry": {
        "type": "Point",
        "coordinates": [
          110.7881908121448,
          -52.12994880502951
        ]
      }
    },
    {
      "type": "Feature",
      "properties": {
        "norad_id": 41174,
        "name": "GSAT0209 (GALILEO 12)",
        "group": "galileo",
        "lat": 23.296143521498557,
        "lon": -90.8784810209471,
        "alt_km": 23226.36640603069,
        "timestamp": "2025-12-19T18:58:41.850965+00:00",
        "meta_object_name": "GSAT0209 (GALILEO 12)",
        "meta_object_id": "2015-079A",
        "meta_epoch": "2025-12-17T18:49:30.009504",
        "meta_mean_motion": 1.70474581,
        "meta_eccentricity": 0.00024688,
        "meta_inclination": 55.7156,
        "meta_ra_of_asc_node": 106.2426,
        "meta_arg_of_pericenter": 347.1145,
        "meta_mean_anomaly": 12.8381,
        "meta_ephemeris_type": 0,
        "meta_classification_type": "U",
        "meta_norad_cat_id": 41174,
        "meta_element_set_no": 999,
        "meta_rev_at_epoch": 6168,
        "meta_bstar": 0,
        "meta_mean_motion_dot": -9e-08,
        "meta_mean_motion_ddot": 0,
        "tle_line1": "1 41174U 15079A   25351.78437511 -.00000009  00000+0  00000+0 0  9999",
        "tle_line2": "2 41174  55.7156 106.2426 0002468 347.1145  12.8381  1.70474581 61685"
      },
      "geometry": {
        "type": "Point",
        "coordinates": [
          -90.8784810209471,
          23.296143521498557
        ]
      }
    },
    {
      "type": "Feature",
      "properties": {
        "norad_id": 41175,
        "name": "GSAT0208 (GALILEO 11)",
        "group": "galileo",
        "lat": 13.370678037483483,
        "lon": 115.49643463880561,
        "alt_km": 23215.33267250304,
        "timestamp": "2025-12-19T18:58:41.850987+00:00",
        "meta_object_name": "GSAT0208 (GALILEO 11)",
        "meta_object_id": "2015-079B",
        "meta_epoch": "2025-12-18T00:06:32.261184",
        "meta_mean_motion": 1.70474394,
        "meta_eccentricity": 0.00019057,
        "meta_inclination": 55.7144,
        "meta_ra_of_asc_node": 106.2337,
        "meta_arg_of_pericenter": 356.5595,
        "meta_mean_anomaly": 3.3982,
        "meta_ephemeris_type": 0,
        "meta_classification_type": "U",
        "meta_norad_cat_id": 41175,
        "meta_element_set_no": 999,
        "meta_rev_at_epoch": 6210,
        "meta_bstar": 0,
        "meta_mean_motion_dot": -8e-08,
        "meta_mean_motion_ddot": 0,
        "tle_line1": "1 41175U 15079B   25352.00454006 -.00000008  00000+0  00000+0 0  9993",
        "tle_line2": "2 41175  55.7144 106.2337 0001905 356.5595   3.3982  1.70474394 62104"
      },
      "geometry": {
        "type": "Point",
        "coordinates": [
          115.49643463880561,
          13.370678037483483
        ]
      }
    },
    {
      "type": "Feature",
      "properties": {
        "norad_id": 41549,
        "name": "GSAT0211 (GALILEO 14)",
        "group": "galileo",
        "lat": -45.27858085304869,
        "lon": -178.03470780686123,
        "alt_km": 23224.698863722388,
        "timestamp": "2025-12-19T18:58:41.851005+00:00",
        "meta_object_name": "GSAT0211 (GALILEO 14)",
        "meta_object_id": "2016-030A",
        "meta_epoch": "2025-12-14T00:32:28.498848",
        "meta_mean_motion": 1.70473201,
        "meta_eccentricity": 0.000407,
        "meta_inclination": 55.1518,
        "meta_ra_of_asc_node": 226.7881,
        "meta_arg_of_pericenter": 16.5595,
        "meta_mean_anomaly": 343.5367,
        "meta_ephemeris_type": 0,
        "meta_classification_type": "U",
        "meta_norad_cat_id": 41549,
        "meta_element_set_no": 999,
        "meta_rev_at_epoch": 5951,
        "meta_bstar": 0,
        "meta_mean_motion_dot": 2.8e-07,
        "meta_mean_motion_ddot": 0,
        "tle_line1": "1 41549U 16030A   25348.02255207  .00000028  00000+0  00000+0 0  9996",
        "tle_line2": "2 41549  55.1518 226.7881 0004070  16.5595 343.5367  1.70473201 59512"
      },
      "geometry": {
        "type": "Point",
        "coordinates": [
          -178.03470780686123,
          -45.27858085304869
        ]
      }
    },
    {
      "type": "Feature",
      "properties": {
        "norad_id": 41550,
        "name": "GSAT0210 (GALILEO 13)",
        "group": "galileo",
        "lat": 30.26746933744266,
        "lon": 22.663996957939588,
        "alt_km": 23218.345009292614,
        "timestamp": "2025-12-19T18:58:41.851018+00:00",
        "meta_object_name": "GSAT0210 (GALILEO 13)",
        "meta_object_id": "2016-030B",
        "meta_epoch": "2025-12-18T23:20:38.714784",
        "meta_mean_motion": 1.70473668,
        "meta_eccentricity": 7.917e-05,
        "meta_inclination": 55.1496,
        "meta_ra_of_asc_node": 226.6499,
        "meta_arg_of_pericenter": 227.6007,
        "meta_mean_anomaly": 132.5002,
        "meta_ephemeris_type": 0,
        "meta_classification_type": "U",
        "meta_norad_cat_id": 41550,
        "meta_element_set_no": 999,
        "meta_rev_at_epoch": 5959,
        "meta_bstar": 0,
        "meta_mean_motion_dot": 6.5e-07,
        "meta_mean_motion_ddot": 0,
        "tle_line1": "1 41550U 16030B   25352.97267031  .00000065  00000+0  00000+0 0  9996",
        "tle_line2": "2 41550  55.1496 226.6499 0000791 227.6007 132.5002  1.70473668 59599"
      },
      "geometry": {
        "type": "Point",
        "coordinates": [
          22.663996957939588,
          30.26746933744266
        ]
      }
    },
    {
      "type": "Feature",
      "properties": {
        "norad_id": 41859,
        "name": "GSAT0207 (GALILEO 15)",
        "group": "galileo",
        "lat": -23.250893630397076,
        "lon": 88.80861376646803,
        "alt_km": 23218.416481204844,
        "timestamp": "2025-12-19T18:58:41.851029+00:00",
        "meta_object_name": "GSAT0207 (GALILEO 15)",
        "meta_object_id": "2016-069A",
        "meta_epoch": "2025-12-19T06:01:13.799424",
        "meta_mean_motion": 1.70474539,
        "meta_eccentricity": 0.00023551,
        "meta_inclination": 55.3858,
        "meta_ra_of_asc_node": 106.07,
        "meta_arg_of_pericenter": 318.8542,
        "meta_mean_anomaly": 41.0896,
        "meta_ephemeris_type": 0,
        "meta_classification_type": "U",
        "meta_norad_cat_id": 41859,
        "meta_element_set_no": 999,
        "meta_rev_at_epoch": 5633,
        "meta_bstar": 0,
        "meta_mean_motion_dot": -6e-08,
        "meta_mean_motion_ddot": 0,
        "tle_line1": "1 41859U 16069A   25353.25085416 -.00000006  00000+0  00000+0 0  9993",
        "tle_line2": "2 41859  55.3858 106.0700 0002355 318.8542  41.0896  1.70474539 56338"
      },
      "geometry": {
        "type": "Point",
        "coordinates": [
          88.80861376646803,
          -23.250893630397076
        ]
      }
    }
  ]
}